NORAD_CAT_ID,OBJECT_NAME,OBJECT_TYPE,EPOCH,MEAN_MOTION,ECCENTRICITY,INCLINATION,RA_OF_ASC_NODE,ARG_OF_PERICENTER,MEAN_ANOMALY,BSTAR,MEAN_MOTION_DOT,MEAN_MOTION_DDOT,TLE_LINE0,TLE_LINE1,TLE_LINE2,SEMIMAJOR_AXIS,PERIOD,APOGEE,PERIGEE,DECAYED
56812.0,STARLINK-6065,PAYLOAD,2023-08-24 22:28:24,15.69936146,0.000267,69.9993,172.4446,231.5343,128.5614,3.0934e-05,3.51e-05,0.0,0 STARLINK-6065,1 56812U 23078AX  23236.93639443  .00003510  00000-0  30934-4 0  9991,2 56812  69.9993 172.4446 0002670 231.5343 128.5614 15.69936146 13756,6737.217,91.723,360.881,357.283,0.0
56812.0,STARLINK-6065,PAYLOAD,2023-08-25 04:35:26,15.699171,0.0003275,69.9989,171.7274,261.9387,98.1437,6.6801e-06,5.9e-06,0.0,0 STARLINK-6065,1 56812U 23078AX  23237.19127849  .00000590  00000-0  66801-5 0  9990,2 56812  69.9989 171.7274 0003275 261.9387  98.1437 15.69917100 13797,6737.271,91.725,361.343,356.93,0.0
56812.0,STARLINK-6065,PAYLOAD,2023-08-25 22:56:27,15.69921235,0.0003356,69.9991,169.5785,258.9382,101.1436,1.3979e-05,1.468e-05,0.0,0 STARLINK-6065,1 56812U 23078AX  23237.95587618  .00001468  00000-0  13979-4 0  9990,2 56812  69.9991 169.5785 0003356 258.9382 101.1436 15.69921235 13656,6737.259,91.724,361.385,356.863,0.0
56812.0,STARLINK-6065,PAYLOAD,2023-08-26 18:49:13,15.69937107,0.0003679,69.9982,167.2472,269.999,90.0785,-2.4069e-07,-2.42e-06,0.0,0 STARLINK-6065,1 56812U 23078AX  23238.78418657 -.00000242  00000-0 -24069-6 0  9993,2 56812  69.9982 167.2472 0003679 269.9990  90.0785 15.69937107 14041,6737.214,91.723,361.558,356.6,0.0
56812.0,STARLINK-6065,PAYLOAD,2023-08-26 20:20:58,15.69933481,0.0003651,69.9998,167.0689,269.58,90.4977,1.4373e-06,-4e-07,0.0,0 STARLINK-6065,1 56812U 23078AX  23238.84790272 -.00000040  00000-0  14373-5 0  9997,2 56812  69.9998 167.0689 0003651 269.5800  90.4977 15.69933481 13791,6737.224,91.724,361.549,356.63,0.0
56812.0,STARLINK-6065,PAYLOAD,2023-08-26 23:24:29,15.69919814,0.0003561,70.0014,166.7142,260.5939,99.4854,-2.4533e-05,-3.161e-05,0.0,0 STARLINK-6065,1 56812U 23078AX  23238.97533987 -.00003161  00000-0 -24533-4 0  9995,2 56812  70.0014 166.7142 0003561 260.5939  99.4854 15.69919814 14076,6737.263,91.724,361.528,356.729,0.0
56812.0,STARLINK-6065,PAYLOAD,2023-08-27 05:31:30,15.69921541,0.0003368,69.998,165.9914,265.3591,94.722,-1.4525e-05,-1.959e-05,0.0,0 STARLINK-6065,1 56812U 23078AX  23239.23021045 -.00001959  00000-0 -14525-4 0  9995,2 56812  69.9980 165.9914 0003368 265.3591  94.7220 15.69921541 13855,6737.258,91.724,361.393,356.854,0.0
56812.0,STARLINK-6065,PAYLOAD,2023-08-27 20:49:01,15.69929252,0.0003446,69.9997,164.2018,270.8993,89.1807,2.1935e-05,2.426e-05,0.0,0 STARLINK-6065,1 56812U 23078AX  23239.86737292  .00002426  00000-0  21935-4 0  9993,2 56812  69.9997 164.2018 0003446 270.8993  89.1807 15.69929252 13951,6737.236,91.724,361.423,356.78,0.0
56812.0,STARLINK-6065,PAYLOAD,2023-08-27 22:20:46,15.69929573,0.0003702,69.998,164.0216,267.3822,92.695,2.379e-05,2.649e-05,0.0,0 STARLINK-6065,1 56812U 23078AX  23239.93108908  .00002649  00000-0  23790-4 0  9995,2 56812  69.9980 164.0216 0003702 267.3822  92.6950 15.69929573 14223,6737.235,91.724,361.595,356.606,0.0
56812.0,STARLINK-6065,PAYLOAD,2023-08-28 05:59:32,15.69919744,0.0003253,69.9995,163.1273,266.6923,93.39,2.1394e-06,4.5e-07,0.0,0 STARLINK-6065,1 56812U 23078AX  23240.24967809  .00000045  00000-0  21394-5 0  9991,2 56812  69.9995 163.1273 0003253 266.6923  93.3900 15.69919744 14274,6737.264,91.724,361.32,356.937,0.0
56812.0,STARLINK-6065,PAYLOAD,2023-08-28 13:38:17,15.6993383,0.0003112,69.9996,162.2311,272.1806,87.9033,7.4253e-06,6.81e-06,0.0,0 STARLINK-6065,1 56812U 23078AX  23240.56825655  .00000681  00000-0  74253-5 0  9996,2 56812  69.9996 162.2311 0003112 272.1806  87.9033 15.69933830 14328,6737.223,91.724,361.185,356.992,0.0
56812.0,STARLINK-6065,PAYLOAD,2023-08-28 22:48:48,15.69926361,0.000326,69.9995,161.1564,270.7596,89.3226,-3.8359e-06,-6.74e-06,0.0,0 STARLINK-6065,1 56812U 23078AX  23240.95055887 -.00000674  00000-0 -38359-5 0  9992,2 56812  69.9995 161.1564 0003260 270.7596  89.3226 15.69926361 14386,6737.245,91.724,361.306,356.913,0.0
56812.0,STARLINK-6065,PAYLOAD,2023-08-29 20:13:20,15.69920804,0.0003698,69.9995,158.6492,268.0276,92.0496,1.7951e-05,1.946e-05,0.0,0 STARLINK-6065,1 56812U 23078AX  23241.84259566  .00001946  00000-0  17951-4 0  9996,2 56812  69.9995 158.6492 0003698 268.0276  92.0496 15.69920804 14260,6737.261,91.724,361.617,356.634,0.0
56812.0,STARLINK-6065,PAYLOAD,2023-08-30 05:23:50,15.69927601,0.0003479,70.0003,157.574,269.4554,90.6243,3.5418e-05,4.049e-05,0.0,0 STARLINK-6065,1 56812U 23078AX  23242.22489346  .00004049  00000-0  35418-4 0  9995,2 56812  70.0003 157.5740 0003479 269.4554  90.6243 15.69927601 14589,6737.241,91.724,361.45,356.762,0.0
56812.0,STARLINK-6065,PAYLOAD,2023-08-30 11:31:26,15.69200032,0.0005343,69.9999,156.859,226.2492,133.8261,-0.0013282,-0.00152524,0.0,0 STARLINK-6065,1 56812U 23078AX  23242.48016882 -.00152524  00000-0 -13282-2 0  9991,2 56812  69.9999 156.8590 0005343 226.2492 133.8261 15.69200032 14626,6739.323,91.767,364.789,357.588,0.0
56812.0,STARLINK-6065,PAYLOAD,2023-08-31 04:00:01,15.6989951,0.0003379,70.0002,154.9262,274.2607,6.9829,0.0003245,0.00038947,0.0,0 STARLINK-6065,1 56812U 23078AX  23243.16668981  .00038947  00000-0  32450-3 0  9999,2 56812  70.0002 154.9262 0003379 274.2607   6.9829 15.69899510 14734,6737.321,91.726,361.463,356.91,0.0
56812.0,STARLINK-6065,PAYLOAD,2023-08-31 08:00:01,15.69937905,0.0003361,69.9998,154.4575,272.9814,229.9151,-0.0003051,-0.00036759,0.0,0 STARLINK-6065,1 56812U 23078AX  23243.33335648 -.00036759  00000-0 -30510-3 0  9995,2 56812  69.9998 154.4575 0003361 272.9814 229.9151 15.69937905 14751,6737.212,91.723,361.341,356.812,0.0
56812.0,STARLINK-6065,PAYLOAD,2023-09-01 10:55:09,15.69927243,0.0006166,69.9958,151.3078,262.4283,97.6212,1.5928e-05,1.703e-05,0.0,0 STARLINK-6065,1 56812U 23078AX  23244.45496716  .00001703  00000-0  15928-4 0  9999,2 56812  69.9958 151.3078 0006166 262.4283  97.6212 15.69927243 14933,6737.242,91.724,363.261,354.953,0.0
56812.0,STARLINK-6065,PAYLOAD,2023-09-01 17:02:09,15.69943906,0.0004514,69.9925,150.5909,259.9867,100.0819,5.993e-05,7.006e-05,0.0,0 STARLINK-6065,1 56812U 23078AX  23244.70983078  .00007006  00000-0  59930-4 0  9992,2 56812  69.9925 150.5909 0004514 259.9867 100.0819 15.69943906 14975,6737.194,91.723,362.101,356.018,0.0
56812.0,STARLINK-6065,PAYLOAD,2023-09-02 00:40:56,15.69930786,0.0003366,69.9974,149.6922,269.432,90.649,2.4386e-05,2.721e-05,0.0,0 STARLINK-6065,1 56812U 23078AX  23245.02842611  .00002721  00000-0  24386-4 0  9991,2 56812  69.9974 149.6922 0003366 269.4320  90.6490 15.69930786 15025,6737.232,91.724,361.365,356.829,0.0
56812.0,STARLINK-6065,PAYLOAD,2023-09-02 11:23:12,15.69920804,0.0003556,69.9982,148.4379,270.7216,89.3572,4.2095e-06,2.93e-06,0.0,0 STARLINK-6065,1 56812U 23078AX  23245.47444926  .00000293  00000-0  42095-5 0  9997,2 56812  69.9982 148.4379 0003556 270.7216  89.3572 15.69920804 14831,6737.261,91.724,361.521,356.73,0.0
56812.0,STARLINK-6065,PAYLOAD,2023-09-02 17:30:12,15.69927832,0.0003727,70.0009,147.7209,270.8561,89.2208,1.2295e-05,1.266e-05,0.0,0 STARLINK-6065,1 56812U 23078AX  23245.72931263  .00001266  00000-0  12295-4 0  9999,2 56812  70.0009 147.7209 0003727 270.8561  89.2208 15.69927832 15139,6737.24,91.724,361.616,356.595,0.0
56812.0,STARLINK-6065,PAYLOAD,2023-09-02 19:01:57,15.69937393,0.0003273,69.9994,147.5416,270.8475,89.2346,3.1622e-05,3.593e-05,0.0,0 STARLINK-6065,1 56812U 23078AX  23245.79302655  .00003593  00000-0  31622-4 0  9993,2 56812  69.9994 147.5416 0003273 270.8475  89.2346 15.69937393 14884,6737.213,91.723,361.283,356.873,0.0
56812.0,STARLINK-6065,PAYLOAD,2023-09-03 12:00:00,15.69858876,0.000331,69.999,145.5539,267.9277,126.6006,0.00066173,0.00079899,0.0,0 STARLINK-6065,1 56812U 23078AX  23246.50001157  .00079899  00000-0  66173-3 0  9996,2 56812  69.9990 145.5539 0003310 267.9277 126.6006 15.69858876 15252,6737.438,91.728,361.533,357.073,0.0
56812.0,STARLINK-6065,PAYLOAD,2023-09-03 14:00:01,15.69843236,0.0003357,69.9989,145.3197,266.3808,238.9743,0.0011634,0.00141586,0.0,0 STARLINK-6065,1 56812U 23078AX  23246.58334491  .00141586  00000-0  11634-2 0  9998,2 56812  69.9989 145.3197 0003357 266.3808 238.9743 15.69843236  6037,6737.483,91.729,361.609,357.086,0.0
56812.0,STARLINK-6065,PAYLOAD,2023-09-04 00:05:15,15.69924693,0.0003018,69.9989,144.1399,268.8145,91.2705,1.2736e-05,1.319e-05,0.0,0 STARLINK-6065,1 56812U 23078AX  23247.00365124  .00001319  00000-0  12736-4 0  9998,2 56812  69.9989 144.1399 0003018 268.8145  91.2705 15.69924693 15331,6737.249,91.724,361.148,357.081,0.0
56812.0,STARLINK-6065,PAYLOAD,2023-09-04 10:47:31,15.69926366,0.0003353,69.9975,142.8854,270.4825,89.5986,1.2371e-05,1.275e-05,0.0,0 STARLINK-6065,1 56812U 23078AX  23247.44966819  .00001275  00000-0  12371-4 0  9990,2 56812  69.9975 142.8854 0003353 270.4825  89.5986 15.69926366 15142,6737.245,91.724,361.369,356.851,0.0
56812.0,STARLINK-6065,PAYLOAD,2023-09-04 19:58:31,15.69506362,0.0004743,69.9971,141.8104,288.3731,71.6948,-0.0004757,-0.00056079,0.0,0 STARLINK-6065,1 56812U 23078AX  23247.83230741 -.00056079  00000-0 -47570-3 0  9993,2 56812  69.9971 141.8104 0004743 288.3731  71.6948 15.69506362 15200,6738.447,91.749,363.508,357.116,0.0
56812.0,STARLINK-6065,PAYLOAD,2023-09-05 23:30:38,15.69365917,0.0006719,69.9985,138.5861,300.7571,59.2963,-0.00048003,-0.000563,0.0,0 STARLINK-6065,1 56812U 23078AX  23248.97961447 -.00056300  00000-0 -48003-3 0  9992,2 56812  69.9985 138.5861 0006719 300.7571  59.2963 15.69365917 15640,6738.849,91.757,365.241,356.186,0.0
56812.0,STARLINK-6065,PAYLOAD,2023-09-06 12:00:00,15.6984938,0.0003554,69.9985,137.1191,270.9268,153.5456,0.00099381,0.00120647,0.0,0 STARLINK-6065,1 56812U 23078AX  23249.50001157  .00120647  00000-0  99381-3 0  9994,2 56812  69.9985 137.1191 0003554 270.9268 153.5456 15.69849380 15721,6737.465,91.729,361.724,356.935,0.0
